NORAD_CAT_ID,OBJECT_NAME,OBJECT_TYPE,EPOCH,MEAN_MOTION,ECCENTRICITY,INCLINATION,RA_OF_ASC_NODE,ARG_OF_PERICENTER,MEAN_ANOMALY,BSTAR,MEAN_MOTION_DOT,MEAN_MOTION_DDOT,TLE_LINE0,TLE_LINE1,TLE_LINE2,SEMIMAJOR_AXIS,PERIOD,APOGEE,PERIGEE,DECAYED
52491.0,STARLINK-3908,PAYLOAD,2023-09-24 19:29:30,15.08845605,0.0001243,53.2163,115.3625,85.433,274.6804,0.00010545,1.391e-05,0.0,0 STARLINK-3908,1 52491U 22049AS  23267.81215309  .00001391  00000-0  10545-3 0  9999,2 52491  53.2163 115.3625 0001243  85.4330 274.6804 15.08845605 77152,6917.863,95.437,540.588,538.868,0.0
52491.0,STARLINK-3908,PAYLOAD,2023-09-25 06:37:11,15.08853121,0.0001254,53.2165,113.278,75.73,284.3831,0.00032061,4.82e-05,0.0,0 STARLINK-3908,1 52491U 22049AS  23268.27583008  .00004820  00000-0  32061-3 0  9991,2 52491  53.2165 113.2780 0001254  75.7300 284.3831 15.08853121 77064,6917.84,95.437,540.573,538.838,0.0
52491.0,STARLINK-3908,PAYLOAD,2023-09-25 19:20:17,15.088395,0.0001322,53.217,110.901,85.8736,274.2408,3.2109e-05,2.23e-06,0.0,0 STARLINK-3908,1 52491U 22049AS  23268.80575436  .00000223  00000-0  32109-4 0  9993,2 52491  53.2170 110.9010 0001322  85.8736 274.2408 15.08839500 77301,6917.882,95.438,540.661,538.832,0.0
52491.0,STARLINK-3908,PAYLOAD,2023-09-25 20:55:40,15.08842008,0.0001384,53.2173,110.6031,76.4945,283.6201,7.1635e-05,8.52e-06,0.0,0 STARLINK-3908,1 52491U 22049AS  23268.87199423  .00000852  00000-0  71635-4 0  9993,2 52491  53.2173 110.6031 0001384  76.4945 283.6201 15.08842008 77155,6917.874,95.437,540.697,538.782,0.0
52491.0,STARLINK-3908,PAYLOAD,2023-09-26 00:06:26,15.08845323,0.0001311,53.2166,110.0097,84.07,276.0441,0.00012316,1.673e-05,0.0,0 STARLINK-3908,1 52491U 22049AS  23269.00447224  .00001673  00000-0  12316-3 0  9996,2 52491  53.2166 110.0097 0001311  84.0700 276.0441 15.08845323 77174,6917.864,95.437,540.636,538.822,0.0
52491.0,STARLINK-3908,PAYLOAD,2023-09-26 20:46:28,15.08833134,0.0001373,53.2169,106.14,89.3361,270.7789,-9.1238e-06,-4.33e-06,0.0,0 STARLINK-3908,1 52491U 22049AS  23269.86560412 -.00000433  00000-0 -91238-5 0  9992,2 52491  53.2169 106.1400 0001373  89.3361 270.7789 15.08833134 77465,6917.901,95.438,540.716,538.817,0.0
52491.0,STARLINK-3908,PAYLOAD,2023-09-27 12:40:19,15.08835637,0.000136,53.216,103.1695,83.4576,276.657,0.00010579,1.396e-05,0.0,0 STARLINK-3908,1 52491U 22049AS  23270.52800698  .00001396  00000-0  10579-3 0  9994,2 52491  53.2160 103.1695 0001360  83.4576 276.6570 15.08835637 77405,6917.894,95.438,540.7,538.818,0.0
52491.0,STARLINK-3908,PAYLOAD,2023-09-27 20:37:15,15.08843991,0.0001323,53.2152,101.6836,85.3429,274.7714,0.00032036,4.815e-05,0.0,0 STARLINK-3908,1 52491U 22049AS  23270.85920558  .00004815  00000-0  32036-3 0  9999,2 52491  53.2152 101.6836 0001323  85.3429 274.7714 15.08843991 77617,6917.868,95.437,540.648,538.818,0.0
52491.0,STARLINK-3908,PAYLOAD,2023-09-28 12:31:06,15.08848162,0.0001412,53.2149,98.71,82.3706,277.7446,0.0004036,6.143e-05,0.0,0 STARLINK-3908,1 52491U 22049AS  23271.52160564  .00006143  00000-0  40360-3 0  9992,2 52491  53.2149  98.7100 0001412  82.3706 277.7446 15.08848162 77550,6917.855,95.437,540.697,538.744,0.0
52491.0,STARLINK-3908,PAYLOAD,2023-09-28 18:52:39,15.08852168,0.0001387,53.2151,97.5208,81.2111,278.9038,0.00039236,5.964e-05,0.0,0 STARLINK-3908,1 52491U 22049AS  23271.78656314  .00005964  00000-0  39236-3 0  9993,2 52491  53.2151  97.5208 0001387  81.2111 278.9038 15.08852168 77593,6917.843,95.437,540.668,538.749,0.0
52491.0,STARLINK-3908,PAYLOAD,2023-09-29 12:21:53,15.08843613,0.0001506,53.2151,94.2503,78.979,281.1371,9.3914e-05,1.207e-05,0.0,0 STARLINK-3908,1 52491U 22049AS  23272.51520440  .00001207  00000-0  93914-4 0  9995,2 52491  53.2151  94.2503 0001506  78.9790 281.1371 15.08843613 77865,6917.869,95.437,540.776,538.693,0.0
52491.0,STARLINK-3908,PAYLOAD,2023-09-29 18:43:26,15.08843148,0.000151,53.2164,93.0608,77.9677,282.1485,6.063e-05,6.77e-06,0.0,0 STARLINK-3908,1 52491U 22049AS  23272.78016518  .00000677  00000-0  60630-4 0  9999,2 52491  53.2164  93.0608 0001510  77.9677 282.1485 15.08843148 77747,6917.871,95.437,540.78,538.691,0.0
52491.0,STARLINK-3908,PAYLOAD,2023-09-30 18:34:13,15.08845312,0.0001615,53.2177,88.6014,95.7626,264.3551,0.00010161,1.33e-05,0.0,0 STARLINK-3908,1 52491U 22049AS  23273.77376176  .00001330  00000-0  10161-3 0  9998,2 52491  53.2177  88.6014 0001615  95.7626 264.3551 15.08845312 78056,6917.864,95.437,540.846,538.612,0.0
52491.0,STARLINK-3908,PAYLOAD,2023-10-01 12:03:27,15.08841793,0.0001468,53.2173,85.3258,91.9085,268.2076,9.1757e-05,1.173e-05,0.0,0 STARLINK-3908,1 52491U 22049AS  23274.50240218  .00001173  00000-0  91757-4 0  9993,2 52491  53.2173  85.3258 0001468  91.9085 268.2076 15.08841793 78008,6917.875,95.437,540.755,538.724,0.0
52491.0,STARLINK-3908,PAYLOAD,2023-10-01 18:24:59,15.08846645,0.0001523,53.2187,84.1401,92.3505,267.7662,0.00014166,1.968e-05,0.0,0 STARLINK-3908,1 52491U 22049AS  23274.76735773  .00001968  00000-0  14166-3 0  9996,2 52491  53.2187  84.1401 0001523  92.3505 267.7662 15.08846645 78044,6917.86,95.437,540.779,538.671,0.0
52491.0,STARLINK-3908,PAYLOAD,2023-10-02 11:54:14,15.08835134,0.0001623,53.2177,80.866,83.2894,276.8283,-9.7491e-05,-1.839e-05,0.0,0 STARLINK-3908,1 52491U 22049AS  23275.49600482 -.00001839  00000-0 -97491-4 0  9997,2 52491  53.2177  80.8660 0001623  83.2894 276.8283 15.08835134 78315,6917.895,95.438,540.883,538.637,0.0
52491.0,STARLINK-3908,PAYLOAD,2023-10-02 15:05:01,15.08838496,0.0001591,53.2186,80.2756,96.4711,263.6462,9.1041e-06,-1.43e-06,0.0,0 STARLINK-3908,1 52491U 22049AS  23275.62848709 -.00000143  00000-0  91041-5 0  9990,2 52491  53.2186  80.2756 0001591  96.4711 263.6462 15.08838496 78174,6917.885,95.438,540.851,538.649,0.0
52491.0,STARLINK-3908,PAYLOAD,2023-10-02 21:26:33,15.0884463,0.0001585,53.2194,79.0852,91.5928,268.5246,4.7938e-05,4.75e-06,0.0,0 STARLINK-3908,1 52491U 22049AS  23275.89344362  .00000475  00000-0  47938-4 0  9997,2 52491  53.2194  79.0852 0001585  91.5928 268.5246 15.08844630 78378,6917.866,95.437,540.828,538.635,0.0
52491.0,STARLINK-3908,PAYLOAD,2023-10-03 14:55:48,15.08838502,0.0001447,53.219,75.8127,88.6098,271.506,6.5252e-06,-1.84e-06,0.0,0 STARLINK-3908,1 52491U 22049AS  23276.62208792 -.00000184  00000-0  65252-5 0  9993,2 52491  53.2190  75.8127 0001447  88.6098 271.5060 15.08838502 78329,6917.885,95.438,540.751,538.749,0.0
52491.0,STARLINK-3908,PAYLOAD,2023-10-03 19:41:57,15.08844186,0.0001464,53.2188,74.9175,82.2687,277.8472,6.7935e-05,7.94e-06,0.0,0 STARLINK-3908,1 52491U 22049AS  23276.82080273  .00000794  00000-0  67935-4 0  9992,2 52491  53.2188  74.9175 0001464  82.2687 277.8472 15.08844186 78356,6917.868,95.437,540.745,538.72,0.0
52491.0,STARLINK-3908,PAYLOAD,2023-10-04 17:56:25,15.09639623,0.0003036,53.2183,70.7625,232.5306,127.541,0.006231,0.00102555,0.0,0 STARLINK-3908,1 52491U 22049AS  23277.74751820  .00102555  00000-0  62310-2 0  9995,2 52491  53.2183  70.7625 0003036 232.5306 127.5410 15.09639623 78655,6915.437,95.387,539.402,535.203,0.0
52491.0,STARLINK-3908,PAYLOAD,2023-10-04 19:32:43,15.08861643,0.0001699,53.2191,70.4553,82.7409,277.3776,4.3118e-05,3.99e-06,0.0,0 STARLINK-3908,1 52491U 22049AS  23277.81439230  .00000399  00000-0  43118-4 0  9991,2 52491  53.2191  70.4553 0001699  82.7409 277.3776 15.08861643 78504,6917.814,95.436,540.855,538.504,0.0
52491.0,STARLINK-3908,PAYLOAD,2023-10-05 06:00:00,15.08797952,0.0001528,53.2166,68.504,86.8211,120.7431,0.0038236,0.00061021,0.0,0 STARLINK-3908,1 52491U 22049AS  23278.25001157  .00061021  00000-0  38236-2 0  9995,2 52491  53.2166  68.5040 0001528  86.8211 120.7431 15.08797952 78726,6918.009,95.44,540.931,538.817,0.0
52491.0,STARLINK-3908,PAYLOAD,2023-10-05 09:51:13,15.08829671,0.0001464,53.2178,67.7821,85.4568,274.6592,-0.00014138,-2.537e-05,0.0,0 STARLINK-3908,1 52491U 22049AS  23278.41057042 -.00002537  00000-0 -14138-3 0  9992,2 52491  53.2178  67.7821 0001464  85.4568 274.6592 15.08829671 78750,6917.912,95.438,540.79,538.764,0.0
52491.0,STARLINK-3908,PAYLOAD,2023-10-05 16:12:45,15.08843447,0.0001502,53.2172,66.594,82.1862,277.9301,0.00011125,1.483e-05,0.0,0 STARLINK-3908,1 52491U 22049AS  23278.67552328  .00001483  00000-0  11125-3 0  9997,2 52491  53.2172  66.5940 0001502  82.1862 277.9301 15.08843447 78792,6917.87,95.437,540.774,538.696,0.0
52491.0,STARLINK-3908,PAYLOAD,2023-10-06 09:42:00,15.08838981,0.0001661,53.217,63.3228,93.2141,266.9041,1.0771e-06,-2.71e-06,0.0,0 STARLINK-3908,1 52491U 22049AS  23279.40416765 -.00000271  00000-0  10771-5 0  9996,2 52491  53.2170  63.3228 0001661  93.2141 266.9041 15.08838981 78902,6917.884,95.438,540.898,538.599,0.0
52491.0,STARLINK-3908,PAYLOAD,2023-10-06 16:03:32,15.08840392,0.000158,53.217,62.133,94.4182,265.6991,9.3344e-05,1.198e-05,0.0,0 STARLINK-3908,1 52491U 22049AS  23279.66912783  .00001198  00000-0  93344-4 0  9999,2 52491  53.2170  62.1330 0001580  94.4182 265.6991 15.08840392 78786,6917.879,95.438,540.837,538.651,0.0
52491.0,STARLINK-3908,PAYLOAD,2023-10-07 14:18:56,15.08843713,0.0001766,53.2175,57.9712,92.5931,267.5264,0.00027758,4.133e-05,0.0,0 STARLINK-3908,1 52491U 22049AS  23280.59649025  .00004133  00000-0  27758-3 0  9996,2 52491  53.2175  57.9712 0001766  92.5931 267.5264 15.08843713 78924,6917.869,95.437,540.956,538.512,0.0
52491.0,STARLINK-3908,PAYLOAD,2023-10-07 15:54:19,15.08848339,0.0001731,53.2178,57.6733,96.5694,263.5495,0.00031496,4.729e-05,0.0,0 STARLINK-3908,1 52491U 22049AS  23280.66272742  .00004729  00000-0  31496-3 0  9997,2 52491  53.2178  57.6733 0001731  96.5694 263.5495 15.08848339 79099,6917.855,95.437,540.917,538.522,0.0
52491.0,STARLINK-3908,PAYLOAD,2023-10-08 09:23:34,15.08839998,0.0001695,53.2181,54.4028,95.9515,264.167,0.00010274,1.347e-05,0.0,0 STARLINK-3908,1 52491U 22049AS  23281.39137104  .00001347  00000-0  10274-3 0  9994,2 52491  53.2181  54.4028 0001695  95.9515 264.1670 15.08839998 79205,6917.88,95.438,540.918,538.573,0.0
